{"type":"FeatureCollection", "features": [
{"type":"Feature","geometry":{"type":"Polygon","coordinates":[[[6.501604749917995,49.73315475787166],[6.5014577046891455,49.73483559575153],[6.50145487589432,49.73612036648565],[6.501595909597292,49.737446340181464],[6.502074012754425,49.739571963897774],[6.501929051617043,49.74199364709482],[6.50153762061343,49.742952820778434],[6.501723868321311,49.74439618154341],[6.502350021922113,49.74578647372604],[6.500426731593757,49.748133993254235],[6.500186868836478,49.74899166859131],[6.500257879761367,49.74997997699727],[6.500118236650469,49.75177490744029],[6.50031983836314,49.752381368979016],[6.501222920108158,49.753574168420464],[6.502406880788029,49.754521409424804],[6.503354269239488,49.75504380830111],[6.504715297743302,49.755598350964625],[6.507609135989452,49.75649370324762],[6.511537115688987,49.75740804089246],[6.512767989087911,49.7578259460135],[6.514795532498248,49.758852537261674],[6.516861012661374,49.760452851917975],[6.517728469917166,49.76120894582189],[6.518149918125957,49.76210610188681],[6.518165776085684,49.76278404077188],[6.517540210881383,49.76522669913848],[6.517643300645055,49.76654971370305],[6.517944024262854,49.767347976598906],[6.517440227491939,49.76853239069319],[6.516360651946423,49.7697029847987],[6.514923760716862,49.77082321419892],[6.512945973193493,49.77205959179265],[6.510529895846349,49.77307608879196],[6.50957350627574,49.77379820729497],[6.509723346163459,49.775214997239864],[6.510342235088567,49.776694521131155],[6.511246794562211,49.777622473723994],[6.512406236624703,49.77842029148942],[6.514942280384758,49.780369405037014],[6.516624696452835,49.78199156430621],[6.51690034898934,49.78257689434919],[6.516188682061708,49.783592891178685],[6.514643529467351,49.78439719028869],[6.51310896531525,49.78497754905098],[6.510970743173727,49.78546471026324],[6.507986536206601,49.78664376046865],[6.5071381816253195,49.78710919458119],[6.506209869797256,49.78784199001024],[6.505672504780803,49.78872057234891],[6.5055798399659786,49.78944068713332],[6.505828773012684,49.79025405396702],[6.507325904366868,49.79194313923791],[6.509279894620063,49.792737843094905],[6.5107579466559615,49.79318813239755],[6.5125440283078175,49.79353473985885],[6.51418175947871,49.794010951818834],[6.5175347374463675,49.79553342570434],[6.5194327608606955,49.79611180995646],[6.520531969985074,49.796655281206284],[6.521606988377148,49.797479676909965],[6.523003158076583,49.799253370624314],[6.524338458830659,49.800384154986816],[6.524903322176262,49.80104204491272],[6.526644576098795,49.80241447879688],[6.528160261256897,49.803177306368376],[6.529674163259126,49.80412289289729],[6.530640151328556,49.80514811927929],[6.530897855525687,49.80600653637846],[6.530092372143018,49.806989643561025],[6.529447821943491,49.80876853218251],[6.5294046722671455,49.809243538671765],[6.527224505988349,49.810822736213815],[6.526176008558417,49.81137007929601],[6.52359163633435,49.812380106118894],[6.521317053525956,49.81311275395032],[6.519948069541981,49.81278075638761],[6.519089729287998,49.81195237214651],[6.518655440560529,49.81104861264169],[6.518410310980735,49.809903066458574],[6.518528093589234,49.808628130874006],[6.517601019639603,49.80669005693799],[6.516933716012262,49.80557437296718],[6.514806451520534,49.80311105586407],[6.513538819958512,49.802040476727065],[6.512815574645158,49.801633827601414],[6.511880938677461,49.80138333324516],[6.511128044468171,49.80137818860904],[6.510301257538536,49.801609794680644],[6.509380301116005,49.80255533877137],[6.507776687061277,49.80592383402346],[6.506846855283758,49.80750977435613],[6.505986562092351,49.808675196674216],[6.505413509704608,49.80913699701228],[6.504477600824157,49.80946040506245],[6.5022343889821,49.80974783488095],[6.501218816603951,49.80996697493458],[6.49886949665884,49.81077429050781],[6.496179087298657,49.81208661804806],[6.495155951105813,49.81218454035132],[6.494203481783104,49.81178039255441],[6.493486492337403,49.81124576671191],[6.4928578180639125,49.811099368144085],[6.491549833280977,49.8111257643929],[6.488648429423504,49.811612278853175],[6.484508839880701,49.81345184663479],[6.483910573579561,49.81400738241614],[6.48129693604022,49.817643007152455],[6.480164466792441,49.818611815120995],[6.47878295670014,49.819321621326374],[6.472565813636822,49.82199531239521],[6.471718413964689,49.82223613680506],[6.470633182626114,49.82231529569429],[6.469625279165552,49.822066280175086],[6.467653187859377,49.82099261557773],[6.466668627121458,49.82033094029196],[6.464391658387674,49.81952690986627],[6.460929452467977,49.81705548967851],[6.460245008086718,49.81627325164832],[6.457760753999394,49.81388252187305],[6.456492586143138,49.81258134958138],[6.4545669036011795,49.81144108410878],[6.453629172039018,49.8112849798142],[6.451915139764529,49.81133753674132],[6.450948949574187,49.81126916762507],[6.447785583505108,49.811611169914904],[6.4464481681168655,49.81161196292461],[6.443944113364052,49.81134012910922],[6.443160261413456,49.81149721347635],[6.442460603164522,49.81213744202342],[6.441963826727557,49.813012318922524],[6.4417198299233345,49.81410455713498],[6.440508097826497,49.81410453452842],[6.437244891200113,49.81337000099162],[6.4346677549057,49.812192566580265],[6.432461498856102,49.81066128743921],[6.4310643751458825,49.810246768232304],[6.430272088014742,49.8103769656009],[6.428688417457641,49.81085924074675],[6.4273039779592045,49.81157784494643],[6.4262281977957585,49.81265491245288],[6.425901300863862,49.81335555981075],[6.4256123649392425,49.81569185241731],[6.424409184803906,49.816017671992626],[6.4204434300483255,49.815967416654935],[6.415908709341265,49.81653321077135],[6.408832623254412,49.8177550340824],[6.406485327213629,49.818616113446225],[6.4045174822438,49.81920709823251],[6.402427072034959,49.819437430263186],[6.4005308569292545,49.82037127737413],[6.397345774986508,49.82216187274245],[6.396873597116996,49.82254041780196],[6.3940715325568815,49.825833809220825],[6.392985371462045,49.82696686673607],[6.391974624833569,49.82777250736213],[6.390672011976076,49.82834712054024],[6.388804286939616,49.82943660781755],[6.387818733563305,49.830398960870184],[6.384504207083074,49.83264268375889],[6.383367154630738,49.83420517514153],[6.38215430952123,49.835581832336366],[6.380578932210833,49.836816382239014],[6.379293286732415,49.83744729604957],[6.378298108806136,49.8382305804873],[6.3772598036614045,49.83926693100913],[6.376735889119725,49.840097806347785],[6.3752435197348545,49.84095111776322],[6.3736476617342985,49.841610755654806],[6.372583839045584,49.84224649461877],[6.371526956740777,49.84350984011883],[6.370955237452926,49.84447903958088],[6.36829373228535,49.84720192635621],[6.366243435447166,49.84964415754236],[6.363943380010578,49.850716539206566],[6.362841881080531,49.85076283483574],[6.360704852799984,49.85058345292685],[6.357158092954189,49.85067785850477],[6.351889786426551,49.850421847790095],[6.349969374300363,49.85039631922044],[6.348436349860687,49.85018893804461],[6.3457167919661845,49.849599406807386],[6.3439141795164735,49.84933548847767],[6.34285145007746,49.84908400781236],[6.3410762048028895,49.848493661424996],[6.340381348049141,49.848073319332094],[6.339872189234319,49.8474383688979],[6.339438523937634,49.84565236732609],[6.339012298488146,49.84455205113259],[6.338338797383662,49.8411136224037],[6.33741455133056,49.839533213025646],[6.335922985039562,49.83824212436458],[6.334925360102455,49.837680856412376],[6.333581058229229,49.83715216509938],[6.329792301229052,49.83604544203234],[6.328400275458027,49.835899138771055],[6.327165489896044,49.83593950922423],[6.326077015639314,49.83623769748709],[6.3233058971424425,49.837517244635904],[6.322159826502946,49.83818913432412],[6.321421556866503,49.838453364955114],[6.320772225833023,49.838978291859675],[6.32002870015383,49.839874563082525],[6.319713991563718,49.840677752468316],[6.319556827711497,49.84321179228713],[6.319917746538166,49.843832301273125],[6.320091295661144,49.84507574746355],[6.321394566983777,49.846643058622405],[6.321789655028874,49.84766917356797],[6.322571375277324,49.850754603591035],[6.322547387564297,49.85151326523022],[6.321780278413937,49.85260746132447],[6.319815761702256,49.85397862582221],[6.318062905139512,49.85494174785585],[6.317492902532147,49.85539058054156],[6.316589895347321,49.856576451258725],[6.315539557269336,49.85816626216183],[6.314133198877988,49.85988198829643],[6.313457445697082,49.86137216479499],[6.313409752342016,49.86211279107769],[6.314310530806645,49.86488859032354],[6.314149735065724,49.86580701395564],[6.313438199292102,49.867482961938556],[6.312529368329293,49.86846256135016],[6.31173514263375,49.86912849906285],[6.310621694313813,49.86980246800353],[6.309382945384803,49.869881951434934],[6.307386966078613,49.869550191774586],[6.305290946789095,49.86871127661232],[6.301845345329113,49.866921236161936],[6.300969083685237,49.866533766504126],[6.299822944773794,49.86622346822007],[6.298224617304517,49.86606552275945],[6.296888600593155,49.86620494038008],[6.295168725676077,49.86710304374083],[6.293650403064297,49.86839908623186],[6.29217889345866,49.87018172866631],[6.291621254364548,49.87111744920581],[6.291391668334129,49.87272108700249],[6.29177782892194,49.87385313679822],[6.291274236966929,49.8746132918482],[6.28961506211189,49.87508274604884],[6.287936998381383,49.8750699408078],[6.287141917489703,49.87489643840157],[6.285934721885041,49.87538015157817],[6.284270767094379,49.87688593311231],[6.282922533295158,49.878470007005276],[6.2823969595651405,49.87865997097709],[6.280989454025132,49.87878049463576],[6.279634411894376,49.87850192146328],[6.278437417558085,49.87759326435112],[6.276056576627956,49.87663789153289],[6.2730448255175935,49.877062661533394],[6.270264523543595,49.87865778511866],[6.268850500726212,49.87912145523035],[6.266989406154863,49.879501269630445],[6.26533217525411,49.88005776203295],[6.263034833627952,49.88070325612572],[6.2619886879874205,49.880823214351324],[6.261484672925911,49.881164430844684],[6.261341152686239,49.8817066343815],[6.26085663016808,49.88215559351686],[6.260048895607318,49.8824970848021],[6.258909162582144,49.88323485945881],[6.257982362618694,49.88577392443357],[6.256353722398462,49.887437400881815],[6.254896796043138,49.88826838633694],[6.2529179772538,49.88909823817012],[6.2502927532438965,49.890465780103995],[6.250172152620403,49.891259616205645],[6.249690040282123,49.89225951281924],[6.2489807961107955,49.8929046742047],[6.248007477788652,49.89354552951333],[6.247305389596903,49.894267445741214],[6.247009956157845,49.8949350906283],[6.245957880738106,49.89549000587502],[6.243776094796843,49.895536797353614],[6.242296861476362,49.89569709481593],[6.240081467763722,49.89616132404003],[6.238475568394911,49.89688168330202],[6.23634735707891,49.89861663804515],[6.235389048706834,49.89914554407728],[6.2348261293155165,49.89886105320589],[6.234476545431123,49.89829590343604],[6.2324354733925995,49.89765940540528],[6.231709052534739,49.8968641295416],[6.231164817203018,49.895884101097764],[6.229455837951969,49.89391699786378],[6.228663550820862,49.892734496355885],[6.230305548091036,49.892379440593416],[6.230571815927765,49.892666660700705],[6.231701896555194,49.89241387948019],[6.23286947196424,49.89194603885625],[6.2338949105391785,49.88959996854339],[6.234489096692269,49.88890313479564],[6.236924918111052,49.88799837814363],[6.237937249367641,49.88779726613843],[6.241287285352737,49.88673772185924],[6.242908135382807,49.8864324076815],[6.24568716803734,49.88544682968549],[6.247270252892866,49.88477946506698],[6.2498456976596115,49.88347215484942],[6.249387838935699,49.882652135032956],[6.248783926723034,49.882011848209565],[6.248345093418515,49.88120109820834],[6.248765999044894,49.880942503122924],[6.250026764783232,49.879528623056714],[6.251299835644312,49.877503908386075],[6.251318014850707,49.875034010391396],[6.251201430594835,49.87306674687176],[6.250007766313285,49.87251035047697],[6.247971117579236,49.87084290781311],[6.246049793663026,49.869455435139834],[6.245443740765011,49.868419606743636],[6.246326995793392,49.86678201689798],[6.246901830438643,49.86627713394868],[6.2475548553445535,49.86535583852343],[6.2474016692324135,49.86381405576332],[6.247741572871318,49.863324991985564],[6.247767532386373,49.86276017483047],[6.248301995844468,49.86174617449542],[6.2491937336640735,49.86100968369086],[6.251655048372284,49.86167420231516],[6.251984638453379,49.86121424516705],[6.251295473425308,49.86086405012417],[6.250326793104977,49.86062955417135],[6.250734704600775,49.86009833816695],[6.2503692690448664,49.85904230293836],[6.247885465911818,49.85855417710177],[6.247090840465999,49.858312412332836],[6.248110937658263,49.857553346630134],[6.247234478384991,49.85664936403681],[6.246407081499293,49.855028636043585],[6.245827662751154,49.854823756478176],[6.244186116435255,49.85527251902277],[6.243119410154491,49.85522662386088],[6.243524345531736,49.85456791193818],[6.2425994374202745,49.85423471326037],[6.241449682789814,49.85318167343503],[6.241358002528544,49.85284380155003],[6.239942153436194,49.85247738627814],[6.238479114045354,49.851625462204936],[6.237673988192164,49.850372832391535],[6.237554202340604,49.84980001296724],[6.236848994299869,49.84935353275595],[6.235495260116154,49.84944586245125],[6.2330335869801345,49.849197337618],[6.232630710541502,49.84948650657593],[6.231154093115134,49.8495383883295],[6.230137274773678,49.849437961723865],[6.226832710609957,49.84980063737495],[6.225944145639934,49.849708109681806],[6.223770376264268,49.84990622877054],[6.22268202597507,49.849792502118206],[6.221321958668585,49.84947891342728],[6.220515243695695,49.849544280267445],[6.21872561369847,49.84923360872985],[6.21832619038378,49.84937058711814],[6.217246829535638,49.850480105749746],[6.215489381683462,49.85111133649225],[6.214810983862333,49.85149939147367],[6.213437333130471,49.85197128114942],[6.212028668763774,49.8528323804726],[6.211109382309348,49.852979845899085],[6.210501533679068,49.85330356558516],[6.208942119431292,49.85351409573823],[6.206768945638669,49.8536614223977],[6.205885037535065,49.85388738553378],[6.204135383466307,49.853660160360874],[6.20342385937078,49.85417669786761],[6.202105773032482,49.85453500112657],[6.201293343876056,49.854462112958416],[6.198285014448638,49.85326207210791],[6.197095768081646,49.85193686090585],[6.1933991665515045,49.84940027685832],[6.1905038550683145,49.84761395330442],[6.18730547895769,49.84601713243606],[6.185225237677825,49.84649078563554],[6.182825612975121,49.84656569298507],[6.180898687164813,49.8463414137293],[6.180125204467513,49.846009001756],[6.178071117637175,49.845499982893166],[6.175681929561448,49.84453266400317],[6.174095365530796,49.84373664783508],[6.173647779940491,49.843307289771815],[6.1725102648557835,49.84326535207417],[6.171826921809034,49.84293903936045],[6.16930561491123,49.842448061676365],[6.1681694580792,49.842423226392114],[6.165225757944891,49.84220039822872],[6.163489367501311,49.84250422980799],[6.161827036864668,49.84209833601867],[6.159463634929158,49.84091791090861],[6.158244241999572,49.84001885789268],[6.15581600505675,49.839048356420044],[6.155521961311436,49.83945625082558],[6.153535653267563,49.838646461918515],[6.152236807944364,49.83835921185866],[6.15250458495075,49.83735573718269],[6.152894373834002,49.83662219451577],[6.152999201837793,49.83580807699115],[6.152745535567846,49.83495800697201],[6.144448869876876,49.83610504065034],[6.143240856805288,49.836248306124816],[6.142670983555373,49.835572863249936],[6.1427499814014555,49.83504513793297],[6.143697135392606,49.834229414373695],[6.146028447709534,49.833039537299584],[6.146769530869487,49.832324985696346],[6.147207267331016,49.831411791399255],[6.147095198906054,49.82993748394685],[6.1464485044279895,49.82769481192912],[6.146487864112147,49.827044218535505],[6.145716204994889,49.826738116667556],[6.143567862433334,49.82559744878121],[6.142079728605044,49.82514414079144],[6.139043122907388,49.82387286371583],[6.136619796155935,49.82235966831428],[6.134616872872582,49.82123282483853],[6.132899868072797,49.820402355630726],[6.13168771286946,49.819496629723744],[6.130082903157095,49.81895308043865],[6.129319500455592,49.81839061951994],[6.128264342017816,49.81810460020885],[6.127729406045914,49.817514675982956],[6.126240766466092,49.817075746821914],[6.126026379930296,49.81684498795948],[6.124149006987677,49.81594124562606],[6.122932577600182,49.81551440447067],[6.120016529406962,49.814223369573746],[6.117607961077289,49.813433251608956],[6.115421864120988,49.81220476997019],[6.113285594018558,49.81148386618564],[6.112145800806278,49.810896094807624],[6.1110953369641665,49.81085182413534],[6.109277939143195,49.81035262977913],[6.110795979683954,49.8095241494852],[6.110891793992134,49.808163787637454],[6.111642525956544,49.805487620258894],[6.1123061249316555,49.80445244233822],[6.11363504405395,49.803251745094286],[6.114325450553777,49.80276343563325],[6.116242017890555,49.80186381248286],[6.117214596000891,49.80223637048165],[6.1180083006735515,49.80188354662605],[6.117452507617375,49.80094530897744],[6.11580022373887,49.8004597999721],[6.115129036694576,49.80002569913726],[6.113864127027827,49.79965764621095],[6.1126873025645985,49.79896521921602],[6.112709866447892,49.797944325577994],[6.1119566748962635,49.79730955768335],[6.111601583440866,49.79660153121103],[6.110586026334067,49.79552186641505],[6.108955266988081,49.79457813919432],[6.106602454393156,49.79368200572891],[6.105331727236637,49.79289380133429],[6.10458165643229,49.79225809619932],[6.106919186887595,49.79161798341025],[6.107470014056883,49.79127157738481],[6.107850975195826,49.79087862748258],[6.107846355160321,49.78951173861151],[6.108155271413481,49.78926394154037],[6.109183738209235,49.78963542731023],[6.111293294211746,49.79013982803211],[6.111970868277737,49.7901560484433],[6.113659362347009,49.790649613431185],[6.11576871353365,49.790567908432585],[6.11694819701012,49.79077825128882],[6.117525203781752,49.79060895290826],[6.120197213848252,49.79121304859262],[6.120191793413833,49.79029957121126],[6.119973850447795,49.789550258881526],[6.120763182121651,49.78945218349956],[6.120286315046358,49.78842704928227],[6.121123932963362,49.78855561996755],[6.123253591465288,49.78786232781706],[6.124023808786538,49.78790500835907],[6.125263499149974,49.78821701925619],[6.1269094858383255,49.78909295831677],[6.128456134127616,49.78933299012285],[6.1298683153986495,49.790112355564595],[6.13073860055097,49.78997486830515],[6.132682170346867,49.79017469764687],[6.133397290398442,49.790569133840364],[6.137813890730495,49.785197743154676],[6.138735837096494,49.78569072821125],[6.139480222463409,49.78507082700613],[6.140420297730131,49.785376831703104],[6.14006976971639,49.784512426803],[6.139742399372323,49.782621733789135],[6.140536034874707,49.782093659962584],[6.141047633513846,49.78110859016876],[6.140619350024041,49.78038589786746],[6.141137659078365,49.78013242344737],[6.142481614201911,49.781187753683916],[6.144214846168964,49.78150180610506],[6.145092623270744,49.78070538016572],[6.1463816473129445,49.7790256639487],[6.147555885526495,49.77807312978081],[6.146701367604029,49.77739130401577],[6.148067053872593,49.77697200242628],[6.149003513420331,49.77612866916548],[6.149353553648882,49.77197712153627],[6.151198119219005,49.77253020523019],[6.152276848551522,49.77107823531665],[6.154618959516459,49.76901011966626],[6.1521995170802874,49.767915854480165],[6.151607365611289,49.76822171339552],[6.1505116949508105,49.76779835686831],[6.152137373425547,49.766524392098],[6.151815271700657,49.76631036972693],[6.152402284806225,49.76584139830145],[6.152063762776224,49.76563826220317],[6.150704989043758,49.76660881770455],[6.15000226933635,49.76624967843642],[6.151112720876502,49.76534558395352],[6.147015927073822,49.76273734293659],[6.147876045992058,49.76182234677357],[6.146742587699176,49.76134221594916],[6.1470240370642175,49.76052141755453],[6.146875143102476,49.760026611912615],[6.147448630274814,49.75947401227792],[6.147146528641402,49.75878072760915],[6.145628011993549,49.75799132568046],[6.144290929880262,49.75746468613889],[6.145586815254627,49.757412339429116],[6.147395055649587,49.75767745922578],[6.150392723871218,49.75872260640874],[6.151060629369815,49.75886779437634],[6.151845614994314,49.75866839591063],[6.152324250852428,49.7581754945567],[6.151496251197177,49.75777666267541],[6.150799023789389,49.75779106820447],[6.1495351346088425,49.75735292360205],[6.147944266749663,49.75666441733131],[6.14692478670004,49.75637030832416],[6.146311753892277,49.75597831844908],[6.145151912079476,49.75553315894519],[6.144842439769178,49.755211211888394],[6.144005138957448,49.75499445945628],[6.142409506434031,49.754292282128],[6.141701156086416,49.75377569808777],[6.143600411091032,49.75227070270243],[6.144807754917716,49.75157708810861],[6.146180784913751,49.750344592891686],[6.147439315643645,49.74883164759081],[6.148512492489402,49.748835673501894],[6.150025680330973,49.749342943166745],[6.150489687124687,49.749658857331816],[6.149559598428964,49.75101487982943],[6.1565176288195005,49.7528853461636],[6.158875705542017,49.75343377945206],[6.158458780350644,49.75285678349503],[6.158583022744338,49.75158587426622],[6.158968083794267,49.75113836847611],[6.1583906952386345,49.75067326850362],[6.1569527323189375,49.750131266992966],[6.15596617282951,49.74962137971807],[6.156417961637069,49.74940465512217],[6.157913198444308,49.749182226805715],[6.156015277437915,49.74691794553091],[6.1570509397390865,49.74458445443499],[6.159023137046451,49.74401856836067],[6.160048392365049,49.74340377422388],[6.160770208458755,49.743252735501756],[6.16321225879571,49.743331227096256],[6.164345924599422,49.743453913314575],[6.164719474637277,49.74307451935215],[6.165511212897791,49.74325055571],[6.16737200743181,49.74392467965059],[6.168883156996034,49.7439827210632],[6.169959891170297,49.74373833087135],[6.172024053504881,49.74386371246641],[6.172298006428878,49.74047698481089],[6.17278300056258,49.739280377652804],[6.175826712832405,49.736740218048546],[6.176726481590662,49.73607444128409],[6.181321253776157,49.733674965111604],[6.182225607535599,49.73310315309124],[6.184022944179657,49.731507550191566],[6.184434659142364,49.73082007001536],[6.184876207155645,49.729206251293085],[6.184629060858066,49.72746929023789],[6.181151285337876,49.726492333027494],[6.18090864319311,49.72589987572288],[6.178228879767362,49.72546246161115],[6.178372809638811,49.7251529119535],[6.176044962123954,49.72243745224955],[6.176601331898533,49.72084253482951],[6.177140064150835,49.72018232048251],[6.1789706519351215,49.71842615006452],[6.177457289820381,49.71791512922583],[6.179142366698327,49.71684518459735],[6.17998283676635,49.71709596621087],[6.180426397904194,49.71663224111076],[6.1814358689249245,49.71605074744435],[6.181862406988136,49.71554005940252],[6.18432742455195,49.71629399868251],[6.184893269756147,49.71458315576063],[6.186510825664095,49.71352810995232],[6.186798973766193,49.712894198887575],[6.186813469879921,49.71167149574935],[6.187064257947699,49.71105567896216],[6.186787293870864,49.71019019553286],[6.186793478771614,49.70933105648015],[6.186019998769239,49.70846150899364],[6.186139061477002,49.707206691151434],[6.187229591079091,49.70618394205453],[6.186246846734703,49.70549109309697],[6.185523822406902,49.704488909572696],[6.184889046775992,49.70233541936789],[6.18374876847348,49.7015453905677],[6.18525207035536,49.699630715498564],[6.184558454175037,49.69874247908064],[6.183594734351712,49.6979610709378],[6.182655378635532,49.69742563221269],[6.181365507482003,49.69728006396062],[6.179072409497266,49.69616883434365],[6.182610656907399,49.69328226830771],[6.182914921684022,49.69311337900797],[6.180975674581291,49.69179782077614],[6.1811306537307384,49.690988165035265],[6.1808888910366315,49.69067689396761],[6.179791534238402,49.69003147333634],[6.179077104991228,49.69057420191418],[6.177894419020772,49.68993280025642],[6.177149574614739,49.68923526445792],[6.175590050772485,49.689552549740164],[6.1741113869838955,49.689478715077094],[6.172969852836609,49.689164231621646],[6.171570726781591,49.688491982059496],[6.170493904572413,49.68811191031245],[6.1681242647355905,49.68749070090859],[6.166998101661104,49.68691714015011],[6.169031012505264,49.685951451723035],[6.1692977762120575,49.68602001164846],[6.17321812562158,49.685535616689585],[6.174855924166121,49.686696153270496],[6.175687922222686,49.68660935160387],[6.17639997003602,49.68677640140528],[6.178234318168091,49.68673473083513],[6.1798655724857765,49.68652393473965],[6.178963880434501,49.68472337141068],[6.179951378663429,49.68439704182081],[6.179685521356773,49.68361349720651],[6.180331367825212,49.68366150919952],[6.1810496274887425,49.684375975943325],[6.185053233657121,49.684465247658494],[6.187763349359664,49.684460680534634],[6.190565315105098,49.684235233328955],[6.193720099568238,49.68271131847989],[6.198601816113354,49.68475246820758],[6.198078453137259,49.68567323046775],[6.196691773240494,49.68637365762687],[6.196275291816888,49.687908200531226],[6.197737459841942,49.68826412371229],[6.199999126673202,49.68830768697498],[6.204328712593541,49.68811333706832],[6.21201515450864,49.6890626184773],[6.213098676353205,49.68843498139565],[6.214477007307711,49.686623708522106],[6.214199453936049,49.68572406792504],[6.214805696378585,49.68495764421542],[6.2149530676958795,49.68478547125287],[6.2181395456205815,49.68511371096186],[6.22035053399509,49.685235191308315],[6.223343985524779,49.685574534011124],[6.222964765320844,49.68452507589558],[6.2238253792108145,49.684389615729515],[6.223574299190579,49.68351329760644],[6.2242984625821345,49.68342894997682],[6.224749020697735,49.684355417451414],[6.225283986314041,49.68502513322804],[6.226784775608073,49.68525549079529],[6.227736501125719,49.685251382891664],[6.230256847724525,49.68506181450163],[6.231804591958475,49.68486995020555],[6.23281507987212,49.68512395924502],[6.234272612590284,49.68524031165956],[6.235450810577575,49.68372178189328],[6.237069011475871,49.6833951317219],[6.238169197068961,49.683471163914],[6.239986646992231,49.68393418150101],[6.241133545878385,49.68396290040059],[6.245298875747351,49.68494589174874],[6.24740811284796,49.6852851062827],[6.248704441990057,49.68575999021648],[6.249354903104152,49.68503480207337],[6.249442397216183,49.68461524355523],[6.250419504632184,49.68472992564544],[6.252128761462636,49.684688630522615],[6.25278064640643,49.68512805669787],[6.253288578122585,49.68486987581168],[6.255535111934575,49.6855380861832],[6.25604296729391,49.68527420186188],[6.25693628614844,49.68565629102996],[6.257543169988071,49.686286799590654],[6.258777275525418,49.685771318216794],[6.2599839770566765,49.684945129794],[6.262176463729598,49.684097921778694],[6.263171265261728,49.68432888645255],[6.264539528796864,49.68376752297156],[6.2659520226816205,49.682133914588526],[6.2674011570501875,49.680979732001624],[6.267464555651374,49.68009988230135],[6.2677462924772875,49.67891851295609],[6.267776869332923,49.6779496813319],[6.2680656507473085,49.67753784514188],[6.268361762414409,49.67652055428892],[6.2687056994889465,49.676108254320354],[6.270023870268871,49.67790409347122],[6.271341858690784,49.67712315363261],[6.271205071324158,49.67696307644867],[6.27241492055218,49.67505175032398],[6.274305600239104,49.67558251239447],[6.27410322777189,49.676001054837485],[6.275866910830452,49.676935195713696],[6.277930713838897,49.677899663495616],[6.279358778222476,49.67873898349421],[6.279632952132026,49.67930941469739],[6.281866876292392,49.67949089045809],[6.282565207729647,49.67973546870205],[6.2834460103572845,49.679751383110656],[6.287062151584069,49.68066952505568],[6.287474032735072,49.680621347357295],[6.289373922848602,49.68136910070754],[6.290869936698598,49.68158630641545],[6.291179929133447,49.68183555308834],[6.292726495676068,49.682379661182544],[6.293379463089798,49.681940222953145],[6.294524729737094,49.6824061095478],[6.295552690781314,49.68252318744843],[6.295541300143518,49.68349724609909],[6.296233656885811,49.68391851838318],[6.296149762323116,49.68477136138433],[6.298725551144616,49.68435000233438],[6.299705271759773,49.68644117315169],[6.298472413084064,49.686750658644755],[6.299489137102427,49.6879041829324],[6.299159210153087,49.68816886428098],[6.298202694818317,49.6881220283642],[6.298196067946496,49.68875013906038],[6.297898861233034,49.689779769182785],[6.298329004235499,49.69029305784449],[6.298994438468714,49.690682048032535],[6.300912086478767,49.69208284961817],[6.301402990628707,49.69275849490708],[6.303013846901267,49.694189358072244],[6.302119502170686,49.69528137372109],[6.299448588048811,49.70021524345122],[6.298981093995165,49.70136078068711],[6.2989191641395,49.701978352405824],[6.299369249741228,49.70400997215684],[6.302425068606169,49.70362937745079],[6.30752149777556,49.70350924911493],[6.307570774860441,49.703098577016036],[6.309660787115668,49.70319208341078],[6.31124102521006,49.703079901278784],[6.313124803140616,49.703328766435014],[6.315920105183281,49.70417862373443],[6.318683516134988,49.70520922546046],[6.319188115999776,49.7057810395603],[6.320002102834901,49.70587447107822],[6.321437667252782,49.706606159861245],[6.3216829342748,49.7069232637736],[6.321458101230557,49.70749458191556],[6.32293815561122,49.70787071154498],[6.3244081560472,49.70836791630789],[6.322567968865764,49.71028581901285],[6.320584608194368,49.71206412769943],[6.32283706729398,49.71253375392607],[6.323320149812724,49.712889860973],[6.323225174530999,49.71369986627784],[6.322707956031452,49.71382434732523],[6.321925368908735,49.71453204877102],[6.321038432584316,49.71555166739464],[6.320286118686718,49.71661206392276],[6.320135296042075,49.71796412549],[6.319704166689464,49.719001166732745],[6.318690771827544,49.720529230039205],[6.318256269301033,49.720943447323556],[6.3162627001747556,49.72036820682541],[6.3145017282317,49.72276651612627],[6.316761530160452,49.722581520545205],[6.318577554457361,49.723709021156104],[6.318074706307381,49.724543711607936],[6.3205363156630066,49.726910280952914],[6.321750274683449,49.72768480975783],[6.321102798671076,49.72866639942887],[6.3211297319599185,49.73018367241435],[6.320803450374,49.731076822271234],[6.321893802109664,49.731204632338795],[6.323341537801351,49.731142703294545],[6.325073435770214,49.73146630933176],[6.326547903528094,49.731628921538025],[6.327267075879942,49.732153542293574],[6.328887000645269,49.73230171819896],[6.331557011061963,49.73242252028069],[6.332120348169897,49.7321640971041],[6.332717073860317,49.73244643888536],[6.334103352210144,49.73211624915323],[6.336260731823434,49.73177941812549],[6.339388475199914,49.73174589712539],[6.3395163387025075,49.73150781902988],[6.34211721118166,49.73118402804269],[6.34149388278243,49.73155611757946],[6.342803979504575,49.73163649486217],[6.343951021222901,49.731939710210135],[6.3441857123790575,49.731046554747564],[6.344796738350505,49.73041584010674],[6.345634332012988,49.730705064097414],[6.3466273782370894,49.731335504398764],[6.348250695040922,49.732025262666006],[6.346151696039633,49.73388876864777],[6.3449847189085204,49.73539349655951],[6.345838477754572,49.73585304335987],[6.347564478283591,49.736326046131445],[6.347467523114963,49.73662090720085],[6.349451056262901,49.73697340812906],[6.351242434381678,49.73816700157187],[6.351987344364732,49.73696747577339],[6.35261312157145,49.73754697664501],[6.353285165608541,49.737694867860334],[6.354434175535608,49.7366131128717],[6.355001524519612,49.735087244760955],[6.357187991581817,49.734782001863344],[6.359520829238083,49.734981579241065],[6.360423708862156,49.73491930839573],[6.362232671502615,49.73515616094633],[6.3645643000265215,49.73504812555938],[6.3665279121347265,49.73479645602592],[6.368121344684019,49.73425960423058],[6.3687222143028155,49.73418605871194],[6.372317443648101,49.73456986047776],[6.376644124416826,49.7353241899683],[6.379427330644173,49.7354978536791],[6.380655769608663,49.73571500908205],[6.381336622525425,49.7366375403241],[6.379584304053543,49.73701109755569],[6.379762680722856,49.73787344804728],[6.379725247924973,49.739054090996156],[6.37919700979183,49.74063914013319],[6.377225487119252,49.7407850910706],[6.376535351910648,49.741508805779986],[6.377846514933048,49.743939277955306],[6.375521342601081,49.74430310451036],[6.37585480801432,49.74487816762638],[6.3753217989286926,49.74529150728172],[6.376717479046277,49.74707839425709],[6.377079804634666,49.747890110970886],[6.377043775005248,49.749811410173685],[6.377367486511137,49.750521527473424],[6.3777568037788805,49.750524030230615],[6.3780595710639085,49.751370286758515],[6.380725539061831,49.7514323049105],[6.381753237798,49.75155884890402],[6.383226668001765,49.75197033471934],[6.385197442377727,49.75398149732007],[6.386581532431493,49.75565338261563],[6.3880060197236315,49.75558003666526],[6.3883717445370385,49.75532598736373],[6.390533644472855,49.75482183647585],[6.391407390833959,49.75470521946444],[6.391416548259937,49.7538559410648],[6.392306995200514,49.75352302992668],[6.393031017556558,49.75411343097861],[6.395976009468258,49.75315329919459],[6.395902638669094,49.75259168145275],[6.394419133859447,49.7509387664253],[6.394134993141835,49.75045153670159],[6.397382700236266,49.74899756697259],[6.397058003278528,49.74835296055389],[6.402604063502116,49.746609154378646],[6.404089373925495,49.746243672209104],[6.4059678967116644,49.74559167804942],[6.409593011209789,49.74444084443121],[6.406507472482009,49.74313833200341],[6.404737059245358,49.7422834882599],[6.405267918662498,49.74171253409203],[6.406044112475304,49.741395179557415],[6.407754484115022,49.741017839087284],[6.40823749836182,49.74057241048552],[6.408189373815415,49.739841575363045],[6.407877215542396,49.739350588897054],[6.408164143732369,49.738904156303086],[6.4088936458116414,49.7384772450305],[6.413080952964064,49.73918614421413],[6.413789350024062,49.738946903189294],[6.414962788736997,49.73822948654188],[6.4150581008869665,49.73722582634696],[6.4180833905069505,49.73695808664914],[6.419226473349802,49.73673559139276],[6.419530871975392,49.736449739961216],[6.419466345090219,49.735013804424405],[6.419947074022935,49.73346571502394],[6.423714478967137,49.73329141000091],[6.424907267391284,49.7330908299001],[6.427368095212602,49.731821084909456],[6.427917192226648,49.731276571079825],[6.429351482833476,49.73174045245017],[6.43132325883097,49.73307667715483],[6.432440970555231,49.73397116492957],[6.434543828718985,49.733228904156825],[6.435545048713875,49.7323684958005],[6.436008209294556,49.73296069996936],[6.437360091152157,49.73389670102042],[6.437918878293193,49.73457636154139],[6.4397102366490335,49.735694099566366],[6.442682806839926,49.73698520026594],[6.443317215059889,49.737403902580326],[6.443852967600385,49.738109716645276],[6.444521684277661,49.7401601458426],[6.4453341637397585,49.741528937790115],[6.446386307431443,49.742187321728316],[6.447146342348927,49.742453566777264],[6.449780830684363,49.741755229159786],[6.451900663413737,49.74144763353707],[6.453654811753873,49.74181484637973],[6.455293399019233,49.741864754904356],[6.455968288919129,49.74158314596802],[6.457784579117379,49.74140799524787],[6.459714833185801,49.74053463384178],[6.460414852557467,49.73953610634827],[6.46139817721358,49.73955597386647],[6.4629067899354,49.740037313706715],[6.464956237865628,49.74056835776456],[6.465954032584319,49.74100939643114],[6.467175033498275,49.741365784033576],[6.470484462039279,49.742646846568924],[6.470636956448654,49.74220526781305],[6.471793226559862,49.74092088981254],[6.472461811184798,49.74127920367441],[6.474235606578519,49.74164712254673],[6.475664840568587,49.74258927667516],[6.476302641725354,49.74169724371509],[6.477275167733425,49.74083551848968],[6.477386206689046,49.73969024921139],[6.478194712004318,49.73829253573878],[6.4786384833479485,49.73797830086315],[6.480470586590139,49.73733635277606],[6.481378374608917,49.736532173697064],[6.482255018036793,49.73607509967275],[6.4828104418853965,49.73624897203025],[6.48461775162573,49.736435116760155],[6.48707162648678,49.736300311040445],[6.488455161381706,49.73634137419739],[6.491093897850116,49.73544653356027],[6.491753795766253,49.73481034757814],[6.492778654029499,49.73418345466588],[6.495915187421011,49.7336075726901],[6.498900104057211,49.733281679339704],[6.500082208817679,49.73323957427759],[6.501077107367861,49.732981156032025],[6.501604749917995,49.73315475787166]]]},"properties":{"name":"Mullerthal region"}}
]}